#cP2019  2 26  0  0  0.00000000      96 ORBIT IGS14 HLM  IGS
## 2042 172800.00000000   900.00000000 58540 0.0000000000000
+   32   G01G02G03G04G05G06G07G08G09G10G11G12G13G14G15G16G17
+        G18G19G20G21G22G23G24G25G26G27G28G29G30G31G32  0  0
+          0  0  0  0  0  0  0  0  0  0  0  0  0  0  0  0  0
+          0  0  0  0  0  0  0  0  0  0  0  0  0  0  0  0  0
+          0  0  0  0  0  0  0  0  0  0  0  0  0  0  0  0  0
++         2  2  2  0  2  2  2  2  2  2  2  2  2  2  2  2  2
++         2  2  2  2  2  2  2  2  2  2  2  2  2  2  2  0  0
++         0  0  0  0  0  0  0  0  0  0  0  0  0  0  0  0  0
++         0  0  0  0  0  0  0  0  0  0  0  0  0  0  0  0  0
++         0  0  0  0  0  0  0  0  0  0  0  0  0  0  0  0  0
%c G  cc GPS ccc cccc cccc cccc cccc ccccc ccccc ccccc ccccc
%c cc cc ccc ccc cccc cccc cccc cccc ccccc ccccc ccccc ccccc
%f  1.2500000  1.025000000  0.00000000000  0.000000000000000
%f  0.0000000  0.000000000  0.00000000000  0.000000000000000
%i    0    0    0    0      0      0      0      0         0
%i    0    0    0    0      0      0      0      0         0
/* RAPID ORBIT COMBINATION FROM WEIGHTED AVERAGE OF:        
/* cod emr esa gfz jpl ngs sio usn whu                      
/* REFERENCED TO IGS TIME (IGST) AND TO WEIGHTED MEAN POLE: 
/* PCV:IGS14_2038 OL/AL:FES2004  NONE     Y  ORB:CMB CLK:CMB
*  2019  2 26  7 30  0.00000000
PG01   4501.795377  14357.848665 -22066.851502   -170.313137  2  6  3  72       
PG02  17899.046238 -14889.564979  13216.477471   -149.631954  3  2  2  87       
PG03  10859.094399  22159.254774  -9955.250927    184.554250  6 11  6  91       
PG04  13366.779719   7672.698048  21640.533608 999999.999999
PG05   7145.145010 -14310.925740  21055.649084      1.131846  6  6  4  87       
PG06  25344.059385  -7553.082043   2690.977896    267.463534  2  4  2  76       
PG07  19001.724728   8399.309638  17051.172593     25.350976  6  8  3  86       
PG08  -5452.438406  25684.833415  -3175.383665   -134.158915  3  4  5 102       
PG09  10805.888599  13588.088749  20052.466089    453.235023  6  7  4  89       
PG10 -20612.600926  -6440.797397 -15535.329969    109.018063  5  6  5  88       
PG11     94.927978  18910.163313 -19264.734051   -654.163314  5  8  3 103       
PG12  -8119.897225 -22621.310823 -11713.372490    264.768842  8  8  6  90       
PG13  12799.247678 -23034.928169   3037.246827    -73.649953  6  8  3  96       
PG14 -16954.747587  12386.710457 -15848.722785    -90.335218  3  5  5 115       
PG15   1441.534654 -25795.361757  -5443.478909   -326.124168  6  7  6 103       
PG16  -6839.549708  14155.686563  21151.198314    -21.717372  7  4  6  70       
PG17  15813.171684  -2960.405951 -20706.220045     15.343930  4  6  2  90       
PG18  -6476.301874  16596.861055 -20139.935981     29.687232  3  7    120       
PG19  17237.280700 -11808.535146 -16749.268713   -348.349323  6  6  3  85       
PG20 -22448.109459 -12678.043036  -6795.573452    522.577234  3 10  6  95       
PG21 -21291.161911  -5648.947987  15564.487649   -242.967619  9  7  6 116       
PG22   4818.163290  20775.331182 -15626.422551   -653.183351  5 11  6  90       
PG23   4050.893041  22172.242812  14034.396169   -195.954446  5  9  5  61       
PG24   -232.237835 -16068.825073 -21263.584585    -62.671861  6  9  5  69       
PG25 -17186.871171 -20398.905714  -1469.795814   -725.750498  4  7  5 103       
PG26 -14701.161801   6423.103349  21176.991291    134.661612  5  3  5  88       
PG27 -11876.533789  22536.178961   6861.777850    -75.087231  5  2  5  98       
PG28  19519.511320   9581.340911 -14577.252574    765.368561  3  7  2  81       
PG29  -6139.952451 -18052.111115  18466.538285    261.879525  3 10  4  93       
PG30  25522.899190   1166.320718   7596.765715    -59.109794  2  6  4  67       
PG31 -25380.957825   7652.139539   3948.845499     55.983336  4  7  6  90       
PG32 -16501.880825   6277.158539 -19767.315978   -207.986988  3  6  5  87       
*  2019  2 26  7 45  0.00000000
PG01   2090.602216  14944.579971 -22009.586460   -170.319582  2  6  3  88       
PG02  19206.596666 -15071.010456  10837.931209   -149.640645  3  2  3  82       
PG03   9821.277802  21394.641032 -12405.546275    184.555623  6 10  6  90       
PG04  12593.293563   9994.177591  21151.279052 999999.999999
PG05   8944.263255 -12627.494195  21457.308918      1.132045  6  5  4  85       
PG06  25531.815430  -7379.502745   -184.371244    267.455973  3  4  3  82       
PG07  17099.588531   8983.120834  18671.093010     25.344427  7  9  3  87       
PG08  -5739.917971  25820.229971   -298.319435   -134.160799  4  4  4  99       
PG09  10114.857198  15717.910389  18820.793412    453.230193  6  6  4  84       
PG10 -21648.035213  -7746.917977 -13408.636477    109.010885  5  7  5 103       
PG11  -1589.761160  20080.260993 -17954.089342   -654.157441  5  8  3  97       
PG12  -7083.339997 -21619.517390 -14065.758822    264.765670  8  8  6  93       
PG13  12814.459838 -22463.274338   5849.518128    -73.648633  6  7  3  89       
PG14 -16442.681383  10469.326090 -17650.797640    -90.334023  4  5  5  95       
PG15   1885.020046 -26166.114457  -2683.698681   -326.122498  6  7  6 108       
PG16  -8468.934673  12267.228065  21766.007678    -21.719564  7  2  6  83       
PG17  15069.640949   -578.975169 -21444.962227     15.349153  4  7  3  85       
PG18  -8562.830607  17109.829205 -18847.105185     29.691123  3  7    117       
PG19  16624.769574  -9946.513502 -18507.353677   -348.345470  6  6  2 101       
PG20 -22724.316132 -13309.780366  -4102.618631    522.577938  5 10  6  90       
PG21 -19665.607755  -6352.381013  17429.286035   -242.960997  9  8  6 112       
PG22   3225.717950  19652.868516 -17360.590034   -653.190552  5 11  6  90       
PG23   3431.630369  23507.675707  11757.196149   -195.953413  6  9  6  70       
PG24   2064.633761 -16693.092060 -20641.312831    -62.672410  6  9  6  79       
PG25 -16829.230703 -20320.444775  -4306.449074   -725.755289  4  6  5  99       
PG26 -16358.210480   4710.487775  20414.216251    134.670847  4  3  6  77       
PG27 -11826.428140  21557.563846   9558.144169    -75.094064  5  1  4  90       
PG28  20416.451019  10953.182336 -12290.126011    765.369065  4  8  2  62       
PG29  -5369.683810 -19913.998710  16711.932890    261.871860  3 10  5  95       
PG30  24587.442932   1637.040598  10151.865916    -59.115634  3  6  4  66       
PG31 -25709.498740   7499.837297   1139.238246     55.980946  4  6  6  76       
PG32 -15985.514721   4001.377699 -20765.764550   -207.969858  2  6  5  70       
*  2019  2 26  8  0  0.00000000
PG01   -261.838749  15654.833856 -21578.923402   -170.326063  3  6  3  89       
PG02  20249.854826 -15216.490475   8276.041528   -149.649727  4  4  3  96       
PG03   8548.853350  20507.308014 -14643.530988    184.557060  6 10  7  98       
PG04  11959.963665  12279.084104  20298.391865 999999.999999
PG05  10842.154560 -11021.217219  21485.353419      1.132153  6  4  3  87       
PG06  25419.030438  -7115.680217  -3056.550508    267.448407  3  4  3  70       
PG07  15072.716400   9714.216611  19980.479617     25.338019  7  9  3  78       
PG08  -5954.303126  25649.275152   2583.947653   -134.162010  5  4  4 104       
PG09   9564.279094  17725.083176  17263.974028    453.225320  6  6  4  89       
PG10 -22562.685699  -8825.569554 -11052.631398    109.003725  5  7  5  99       
PG11  -3103.539181  21216.969883 -16348.756325   -654.151812  6  8  2 106       
PG12  -5818.135269 -20497.242949 -16181.118023    264.762819  8  8  6 101       
PG13  12757.378252 -21596.420866   8560.580423    -73.647268  5  6  3  92       
PG14 -15974.997439   8346.755859 -19139.933351    -90.332781  4  6  4  99       
PG15   2273.956832 -26243.466283    123.243201   -326.121306  6  7  6 107       
PG16 -10230.190850  10438.712033  21998.653168    -21.721658  7  2  7  73       
PG17  14440.495820   1900.549135 -21800.060926     15.354263  4  8  3  52       
PG18 -10472.669251  17673.911286 -17240.562397     29.694947  3  6    129       
PG19  16062.715237  -7883.116384 -19955.159416   -348.341612  6  6  2  81       
PG20 -22781.194433 -13749.895396  -1339.790122    522.577876  6  9  6  94       
PG21 -17905.344874  -7201.906424  19009.654036   -242.954222 10  9  6 100       
PG22   1440.696651  18492.933687 -18791.241054   -653.197574  5 10  5  83       
PG23   2927.923105  24610.515648   9276.467362   -195.952152  6  9  5  69       
PG24   4247.687758 -17398.163694 -19666.522279    -62.672707  6  9  6  65       
PG25 -16236.533485 -20048.451723  -7070.426224   -725.760105  4  6  5  96       
PG26 -18019.239410   3155.234535  19300.967479    134.680088  4  2  7  93       
PG27 -11767.164620  20285.417248  12086.640515    -75.100908  6  1  4  98       
PG28  21199.162177  12065.789374  -9783.299844    765.369664  5  8  2  83       
PG29  -4763.578240 -21608.356672  14669.274899    261.863848  3 10  5  96       
PG30  23408.032672   2225.873478  12534.017633    -59.121461  4  7  4  73       
PG31 -25742.218508   7277.805549  -1689.445526     55.978393  3  5  5  96       
PG32 -15567.554443   1612.067936 -21404.858205   -207.952732  2  6  5  84       
EOF
